{
  "type": "FeatureCollection",
  "features": [
    {
      "type": "Feature",
      "properties": {
        "norad_id": 40069,
        "name": "METEOR-M 2",
        "group": "weather",
        "lat": 76.87475256776388,
        "lon": -65.33980448745255,
        "alt_km": 813.8421778203228,
        "timestamp": "2025-12-23T07:45:09.039684+00:00",
        "meta_object_name": "METEOR-M 2",
        "meta_object_id": "2014-037A",
        "meta_epoch": "2025-12-22T22:55:48.771840",
        "meta_mean_motion": 14.21389149,
        "meta_eccentricity": 0.00055219,
        "meta_inclination": 98.491,
        "meta_ra_of_asc_node": 334.1483,
        "meta_arg_of_pericenter": 177.4682,
        "meta_mean_anomaly": 182.6525,
        "meta_ephemeris_type": 0,
        "meta_classification_type": "U",
        "meta_norad_cat_id": 40069,
        "meta_element_set_no": 999,
        "meta_rev_at_epoch": 59428,
        "meta_bstar": -6.8363468e-05,
        "meta_mean_motion_dot": -1.91e-06,
        "meta_mean_motion_ddot": 0,
        "tle_line1": "1 40069U 14037A   25356.95542560 -.00000191  00000+0 -68363-4 0  9993",
        "tle_line2": "2 40069  98.4910 334.1483 0005521 177.4682 182.6525 14.21389149594285"
      },
      "geometry": {
        "type": "Point",
        "coordinates": [
          -65.33980448745255,
          76.87475256776388
        ]
      }
    },
    {
      "type": "Feature",
      "properties": {
        "norad_id": 40267,
        "name": "HIMAWARI-8",
        "group": "weather",
        "lat": 0.019351860571709283,
        "lon": -10.931136791105162,
        "alt_km": 35783.51238603396,
        "timestamp": "2025-12-23T07:45:09.039696+00:00",
        "meta_object_name": "HIMAWARI-8",
        "meta_object_id": "2014-060A",
        "meta_epoch": "2025-12-22T15:32:48.240384",
        "meta_mean_motion": 1.00272386,
        "meta_eccentricity": 8.095e-05,
        "meta_inclination": 0.0463,
        "meta_ra_of_asc_node": 219.1535,
        "meta_arg_of_pericenter": 86.467,
        "meta_mean_anomaly": 159.6952,
        "meta_ephemeris_type": 0,
        "meta_classification_type": "U",
        "meta_norad_cat_id": 40267,
        "meta_element_set_no": 999,
        "meta_rev_at_epoch": 4099,
        "meta_bstar": 0,
        "meta_mean_motion_dot": -2.54e-06,
        "meta_mean_motion_ddot": 0,
        "tle_line1": "1 40267U 14060A   25356.64778056 -.00000254  00000+0  00000+0 0  9994",
        "tle_line2": "2 40267   0.0463 219.1535 0000809  86.4670 159.6952  1.00272386 40996"
      },
      "geometry": {
        "type": "Point",
        "coordinates": [
          -10.931136791105162,
          0.019351860571709283
        ]
      }
    },
    {
      "type": "Feature",
      "properties": {
        "norad_id": 40367,
        "name": "FENGYUN 2G",
        "group": "weather",
        "lat": -4.146161011273778,
        "lon": -52.53124978241084,
        "alt_km": 35780.15320380287,
        "timestamp": "2025-12-23T07:45:09.039708+00:00",
        "meta_object_name": "FENGYUN 2G",
        "meta_object_id": "2014-090A",
        "meta_epoch": "2025-12-22T18:46:22.206144",
        "meta_mean_motion": 1.00260244,
        "meta_eccentricity": 0.00026548,
        "meta_inclination": 5.192,
        "meta_ra_of_asc_node": 74.9826,
        "meta_arg_of_pericenter": 203.0089,
        "meta_mean_anomaly": 194.3715,
        "meta_ephemeris_type": 0,
        "meta_classification_type": "U",
        "meta_norad_cat_id": 40367,
        "meta_element_set_no": 999,
        "meta_rev_at_epoch": 4023,
        "meta_bstar": 0,
        "meta_mean_motion_dot": -2.79e-06,
        "meta_mean_motion_ddot": 0,
        "tle_line1": "1 40367U 14090A   25356.78220146 -.00000279  00000+0  00000+0 0  9992",
        "tle_line2": "2 40367   5.1920  74.9826 0002654 203.0089 194.3715  1.00260244 40232"
      },
      "geometry": {
        "type": "Point",
        "coordinates": [
          -52.53124978241084,
          -4.146161011273778
        ]
      }
    },
    {
      "type": "Feature",
      "properties": {
        "norad_id": 40732,
        "name": "METEOSAT-11 (MSG-4)",
        "group": "weather",
        "lat": 1.5505006155320316,
        "lon": -142.38179784972368,
        "alt_km": 35782.96038209338,
        "timestamp": "2025-12-23T07:45:09.039720+00:00",
        "meta_object_name": "METEOSAT-11 (MSG-4)",
        "meta_object_id": "2015-034A",
        "meta_epoch": "2025-12-22T18:20:39.668064",
        "meta_mean_motion": 1.0027063,
        "meta_eccentricity": 7.694e-05,
        "meta_inclination": 2.7614,
        "meta_ra_of_asc_node": 71.9741,
        "meta_arg_of_pericenter": 137.3784,
        "meta_mean_anomaly": 166.5656,
        "meta_ephemeris_type": 0,
        "meta_classification_type": "U",
        "meta_norad_cat_id": 40732,
        "meta_element_set_no": 999,
        "meta_rev_at_epoch": 544,
        "meta_bstar": 0,
        "meta_mean_motion_dot": 8.1e-07,
        "meta_mean_motion_ddot": 0,
        "tle_line1": "1 40732U 15034A   25356.76434801  .00000081  00000+0  00000+0 0  9990",
        "tle_line2": "2 40732   2.7614  71.9741 0000769 137.3784 166.5656  1.00270630  5449"
      },
      "geometry": {
        "type": "Point",
        "coordinates": [
          -142.38179784972368,
          1.5505006155320316
        ]
      }
    },
    {
      "type": "Feature",
      "properties": {
        "norad_id": 41105,
        "name": "ELEKTRO-L 2",
        "group": "weather",
        "lat": 5.348141002436711,
        "lon": -165.95491513819985,
        "alt_km": 35784.58229117904,
        "timestamp": "2025-12-23T07:45:09.039732+00:00",
        "meta_object_name": "ELEKTRO-L 2",
        "meta_object_id": "2015-074A",
        "meta_epoch": "2025-12-22T21:39:28.130688",
        "meta_mean_motion": 1.00272375,
        "meta_eccentricity": 0.00035003,
        "meta_inclination": 6.2496,
        "meta_ra_of_asc_node": 72.7074,
        "meta_arg_of_pericenter": 208.7357,
        "meta_mean_anomaly": 120.6538,
        "meta_ephemeris_type": 0,
        "meta_classification_type": "U",
        "meta_norad_cat_id": 41105,
        "meta_element_set_no": 999,
        "meta_rev_at_epoch": 3673,
        "meta_bstar": 0,
        "meta_mean_motion_dot": -9.9e-07,
        "meta_mean_motion_ddot": 0,
        "tle_line1": "1 41105U 15074A   25356.90240892 -.00000099  00000+0  00000+0 0  9990",
        "tle_line2": "2 41105   6.2496  72.7074 0003500 208.7357 120.6538  1.00272375 36738"
      },
      "geometry": {
        "type": "Point",
        "coordinates": [
          -165.95491513819985,
          5.348141002436711
        ]
      }
    },
    {
      "type": "Feature",
      "properties": {
        "norad_id": 41752,
        "name": "INSAT-3DR",
        "group": "weather",
        "lat": -0.055165231467831734,
        "lon": -77.58444348268469,
        "alt_km": 35727.026232725715,
        "timestamp": "2025-12-23T07:45:09.039744+00:00",
        "meta_object_name": "INSAT-3DR",
        "meta_object_id": "2016-054A",
        "meta_epoch": "2025-12-22T22:04:33.229056",
        "meta_mean_motion": 1.00271553,
        "meta_eccentricity": 0.00141985,
        "meta_inclination": 0.116,
        "meta_ra_of_asc_node": 86.2345,
        "meta_arg_of_pericenter": 185.5142,
        "meta_mean_anomaly": 225.097,
        "meta_ephemeris_type": 0,
        "meta_classification_type": "U",
        "meta_norad_cat_id": 41752,
        "meta_element_set_no": 999,
        "meta_rev_at_epoch": 3405,
        "meta_bstar": 0,
        "meta_mean_motion_dot": -5.6e-07,
        "meta_mean_motion_ddot": 0,
        "tle_line1": "1 41752U 16054A   25356.91982904 -.00000056  00000+0  00000+0 0  9998",
        "tle_line2": "2 41752   0.1160  86.2345 0014198 185.5142 225.0970  1.00271553 34057"
      },
      "geometry": {
        "type": "Point",
        "coordinates": [
          -77.58444348268469,
          -0.055165231467831734
        ]
      }
    },
    {
      "type": "Feature",
      "properties": {
        "norad_id": 41836,
        "name": "HIMAWARI-9",
        "group": "weather",
        "lat": -0.02115447925435943,
        "lon": -10.841916226427223,
        "alt_km": 35780.67816374628,
        "timestamp": "2025-12-23T07:45:09.039756+00:00",
        "meta_object_name": "HIMAWARI-9",
        "meta_object_id": "2016-064A",
        "meta_epoch": "2025-12-22T13:50:05.574624",
        "meta_mean_motion": 1.00268363,
        "meta_eccentricity": 0.00015821,
        "meta_inclination": 0.0162,
        "meta_ra_of_asc_node": 28.6262,
        "meta_arg_of_pericenter": 306.4522,
        "meta_mean_anomaly": 104.5911,
        "meta_ephemeris_type": 0,
        "meta_classification_type": "U",
        "meta_norad_cat_id": 41836,
        "meta_element_set_no": 999,
        "meta_rev_at_epoch": 3343,
        "meta_bstar": 0,
        "meta_mean_motion_dot": 0,
        "meta_mean_motion_ddot": 0,
        "tle_line1": "1 41836U 16064A   25356.57645341  .00000000  00000+0  00000+0 0  9993",
        "tle_line2": "2 41836   0.0162  28.6262 0001582 306.4522 104.5911  1.00268363 33430"
      },
      "geometry": {
        "type": "Point",
        "coordinates": [
          -10.841916226427223,
          -0.02115447925435943
        ]
      }
    }
  ]
}